SatCatId,ObjectName,LaunchYear,OrbitalPeriod,LaunchMass,StatusCode,Inclination,Status,UcsData,OrbitClassEstimated,LaunchSiteCountry,Owner,UseType,Purpose,LaunchVehicleClass,TLE1,TLE2,MeanMotion,Eccentricity,OrbitClass
57332,STARLINK-5831,2023,95.84,-1.0,+,43.0,Active,0,LEO,USA,USA,Unknown,Unknown,Unknown,1 57332U 23099E   24173.73389726  .00001003  00000+0  89298-4 0  9998,2 57332  43.0041  50.4988 0001109 264.6670  95.4045 15.02532398 52697,15.02532398,0.0001109,LEO
57333,STARLINK-5585,2023,95.84,-1.0,+,43.0,Active,0,LEO,USA,USA,Unknown,Unknown,Unknown,1 57333U 23099F   24173.06800541  .00000853  00000+0  78239-4 0  9993,2 57333  43.0029  54.1002 0001043 263.2385  96.8338 15.02533444 51857,15.02533444,0.0001043,LEO
57334,STARLINK-5589,2023,95.84,-1.0,+,43.0,Active,0,LEO,USA,USA,Unknown,Unknown,Unknown,1 57334U 23099G   24172.99597738  .00000570  00000+0  57283-4 0  9998,2 57334  43.0026  54.4189 0001169 264.9096  95.1613 15.02533898 52470,15.02533898,0.0001169,LEO
57335,STARLINK-6316,2023,95.84,-1.0,+,43.0,Active,0,LEO,USA,USA,Unknown,Unknown,Unknown,1 57335U 23099H   24173.05138101 -.00002072  00000+0 -13839-3 0  9991,2 57335  43.0058  53.9814 0001877 262.1815  97.8814 15.02516300 52594,15.025163,0.0001877,LEO
57336,STARLINK-6320,2023,95.84,-1.0,+,43.0,Active,0,LEO,USA,USA,Unknown,Unknown,Unknown,1 57336U 23099J   24173.68616359 -.00000828  00000+0 -46233-4 0  9999,2 57336  43.0028  50.1178 0000898 242.0905 117.9847 15.02533699 52694,15.02533699,8.98e-05,LEO
57337,STARLINK-6322,2023,95.84,-1.0,+,43.0,Active,0,LEO,USA,USA,Unknown,Unknown,Unknown,1 57337U 23099K   24172.99265005  .00000168  00000+0  27499-4 0  9999,2 57337  43.0065  54.3906 0001021 266.2601  93.8125 15.02537227 52581,15.02537227,0.0001021,LEO
57338,STARLINK-6374,2023,95.84,-1.0,+,43.01,Active,0,LEO,USA,USA,Unknown,Unknown,Unknown,1 57338U 23099L   24173.05469008  .00000660  00000+0  63896-4 0  9995,2 57338  43.0038  53.9960 0001062 275.4460  84.6261 15.02536733 51856,15.02536733,0.0001062,LEO
57339,STARLINK-6332,2023,95.84,-1.0,+,43.0,Active,0,LEO,USA,USA,Unknown,Unknown,Unknown,1 57339U 23099M   24173.65965001  .00001136  00000+0  99174-4 0  9993,2 57339  43.0050  50.7953 0001097 272.7721  87.2996 15.02536807 52684,15.02536807,0.0001097,LEO
57340,STARLINK-6321,2023,95.84,-1.0,+,43.0,Active,0,LEO,USA,USA,Unknown,Unknown,Unknown,1 57340U 23099N   24173.70725088  .00001952  00000+0  15948-3 0  9992,2 57340  43.0031  50.2938 0000867 287.8608  72.2139 15.02543566 52692,15.02543566,8.67e-05,LEO
57341,STARLINK-6377,2023,95.84,-1.0,+,43.01,Active,0,LEO,USA,USA,Unknown,Unknown,Unknown,1 57341U 23099P   24173.04803099  .00000115  00000+0  23604-4 0  9998,2 57341  43.0063  53.9460 0000898 283.1490  76.9252 15.02531297 51852,15.02531297,8.98e-05,LEO
57342,STARLINK-6375,2023,95.84,-1.0,+,43.01,Active,0,LEO,USA,USA,Unknown,Unknown,Unknown,1 57342U 23099Q   24173.09230942  .00000230  00000+0  32113-4 0  9998,2 57342  43.0061  53.4209 0001261 265.5719  94.4980 15.02536163 52604,15.02536163,0.0001261,LEO
57343,STARLINK-6379,2023,95.84,-1.0,+,43.01,Active,0,LEO,USA,USA,Unknown,Unknown,Unknown,1 57343U 23099R   24173.04469504 -.00003391  00000+0 -23605-3 0  9990,2 57343  43.0064  53.9248 0001468 274.3599  85.7075 15.02542444 51852,15.02542444,0.0001468,LEO
57344,STARLINK-6380,2023,95.84,-1.0,+,43.0,Active,0,LEO,USA,USA,Unknown,Unknown,Unknown,1 57344U 23099S   24173.63412061  .00001480  00000+0  12465-3 0  9999,2 57344  43.0034  50.6027 0001157 288.1148  71.9569 15.02533769 52684,15.02533769,0.0001157,LEO
57345,STARLINK-6373,2023,95.84,-1.0,+,43.0,Active,0,LEO,USA,USA,Unknown,Unknown,Unknown,1 57345U 23099T   24173.10562999  .00000073  00000+0  20473-4 0  9994,2 57345  43.0055  53.5195 0001281 269.2945  90.7751 15.02532797 51860,15.02532797,0.0001281,LEO
57346,STARLINK-6359,2023,95.84,-1.0,+,43.0,Active,0,LEO,USA,USA,Unknown,Unknown,Unknown,1 57346U 23099U   24172.95269028  .00001186  00000+0  10287-3 0  9991,2 57346  43.0048  54.0889 0001224 267.0220  93.0482 15.02538754 52584,15.02538754,0.0001224,LEO
57347,STARLINK-6378,2023,95.84,-1.0,+,43.0,Active,0,LEO,USA,USA,Unknown,Unknown,Unknown,1 57347U 23099V   24173.09785228  .00001364  00000+0  11605-3 0  9996,2 57347  43.0041  53.4622 0001183 269.0229  91.0478 15.02538605 51869,15.02538605,0.0001183,LEO
57348,STARLINK-6372,2023,95.84,-1.0,+,43.0,Active,0,LEO,USA,USA,Unknown,Unknown,Unknown,1 57348U 23099W   24173.08010463 -.00001450  00000+0 -92290-4 0  9996,2 57348  43.0044  53.3288 0001218 268.5557  91.5146 15.02534593 51866,15.02534593,0.0001218,LEO
57349,STARLINK-6376,2023,95.84,-1.0,+,43.01,Active,0,LEO,USA,USA,Unknown,Unknown,Unknown,1 57349U 23099X   24173.08231739  .00000568  00000+0  57086-4 0  9999,2 57349  43.0050  53.3476 0001370 268.1023  91.9663 15.02538420 52587,15.0253842,0.000137,LEO
57350,STARLINK-6362,2023,95.84,-1.0,+,43.0,Active,0,LEO,USA,USA,Unknown,Unknown,Unknown,1 57350U 23099Y   24173.02177040  .00004385  00000+0  33966-3 0  9990,2 57350  43.0007  41.5853 0000272  64.6466 295.4404 15.02514974 51995,15.02514974,2.72e-05,LEO
57351,STARLINK-6331,2023,95.84,-1.0,+,43.01,Active,0,LEO,USA,USA,Unknown,Unknown,Unknown,1 57351U 23099Z   24173.07898981 -.00000057  00000+0  10852-4 0  9993,2 57351  43.0043  53.3229 0001388 263.0546  97.0139 15.02537213 51865,15.02537213,0.0001388,LEO
57352,STARLINK-6297,2023,95.84,-1.0,+,43.0,Active,0,LEO,USA,USA,Unknown,Unknown,Unknown,1 57352U 23099AA  24173.01510515  .00000207  00000+0  30383-4 0  9999,2 57352  43.0036  41.5339 0001261 265.6491  94.4207 15.02533550 51997,15.0253355,0.0001261,LEO
57353,STARLINK-6324,2023,95.84,-1.0,+,43.0,Active,0,LEO,USA,USA,Unknown,Unknown,Unknown,1 57353U 23099AB  24173.07676678  .00000934  00000+0  84198-4 0  9999,2 57353  43.0069  53.3027 0001294 266.4775  93.5919 15.02538566 51867,15.02538566,0.0001294,LEO
57354,STARLINK-6293,2023,95.84,-1.0,+,43.0,Active,0,LEO,USA,USA,Unknown,Unknown,Unknown,1 57354U 23099AC  24172.93974027  .00000737  00000+0  69617-4 0  9993,2 57354  43.0036  41.8265 0001267 276.9445  83.1253 15.02539790 51987,15.0253979,0.0001267,LEO
57355,STARLINK-6276,2023,95.84,-1.0,+,43.01,Active,0,LEO,USA,USA,Unknown,Unknown,Unknown,1 57355U 23099AD  24173.01843213 -.00001574  00000+0 -10147-3 0  9991,2 57355  43.0065  41.5594 0001337 265.2447  94.8242 15.02541205 51995,15.02541205,0.0001337,LEO
57356,STARLINK-6355,2023,95.84,-1.0,+,43.0,Active,0,LEO,USA,USA,Unknown,Unknown,Unknown,1 57356U 23099AE  24172.93863365 -.00000272  00000+0 -50568-5 0  9999,2 57356  43.0042  41.8189 0000923 274.4253  85.6484 15.02536197 51980,15.02536197,9.23e-05,LEO
57357,STARLINK-5600,2023,95.84,-1.0,+,43.0,Active,0,LEO,USA,USA,Unknown,Unknown,Unknown,1 57357U 23099AF  24173.67763674  .00004627  00000+0  35714-3 0  9994,2 57357  43.0048  37.9063 0000795 310.5923  49.4850 15.02563480 52720,15.0256348,7.95e-05,LEO
57358,STARLINK-6299,2023,95.84,-1.0,+,43.0,Active,0,LEO,USA,USA,Unknown,Unknown,Unknown,1 57358U 23099AG  24173.66434246  .00000702  00000+0  67065-4 0  9999,2 57358  43.0036  37.8034 0000952 266.7707  93.3027 15.02535028 52835,15.02535028,9.52e-05,LEO
57359,STARLINK-6347,2023,95.84,-1.0,+,43.0,Active,0,LEO,USA,USA,Unknown,Unknown,Unknown,1 57359U 23099AH  24173.68101105  .00004766  00000+0  36773-3 0  9992,2 57359  43.0068  37.9232 0001007 263.6001  96.4727 15.02523717 52830,15.02523717,0.0001007,LEO
57360,STARLINK-6348,2023,95.84,-1.0,+,43.0,Active,0,LEO,USA,USA,Unknown,Unknown,Unknown,1 57360U 23099AJ  24172.99290477  .00000248  00000+0  33450-4 0  9999,2 57360  43.0107  41.3589 0001484 266.9008  93.1664 15.02532582 52735,15.02532582,0.0001484,LEO
57361,STARLINK-6340,2023,95.84,-1.0,+,43.0,Active,0,LEO,USA,USA,Unknown,Unknown,Unknown,1 57361U 23099AK  24173.66656096  .00000273  00000+0  35292-4 0  9992,2 57361  43.0042  37.8192 0001276 268.3638  91.7058 15.02533998 52832,15.02533998,0.0001276,LEO
57362,STARLINK-6343,2023,95.84,-1.0,+,43.0,Active,0,LEO,USA,USA,Unknown,Unknown,Unknown,1 57362U 23099AL  24173.58787424  .00000532  00000+0  54479-4 0  9990,2 57362  43.0049  38.0889 0001311 268.8471  91.2221 15.02533046 52826,15.02533046,0.0001311,LEO
57363,STARLINK-6356,2023,95.84,-1.0,+,43.0,Active,0,LEO,USA,USA,Unknown,Unknown,Unknown,1 57363U 23099AM  24173.06271236  .00000077  00000+0  20787-4 0  9992,2 57363  43.0039  41.0283 0001163 268.5123  91.5586 15.02531200 52001,15.025312,0.0001163,LEO
57364,STARLINK-6338,2023,95.84,-1.0,+,43.0,Active,0,LEO,USA,USA,Unknown,Unknown,Unknown,1 57364U 23099AN  24173.58676335 -.00003501  00000+0 -24414-3 0  9996,2 57364  43.0046  38.0769 0000776 266.9502  93.1251 15.02552889 52088,15.02552889,7.76e-05,LEO
57365,STARLINK-5007,2023,95.84,-1.0,+,43.01,Active,0,LEO,USA,USA,Unknown,Unknown,Unknown,1 57365U 23099AP  24173.04495428 -.00000134  00000+0  51669-5 0  9992,2 57365  43.0044  40.8916 0001139 265.4473  94.6239 15.02533904 52008,15.02533904,0.0001139,LEO
57366,STARLINK-6174,2023,95.84,-1.0,+,43.0,Active,0,LEO,USA,USA,Unknown,Unknown,Unknown,1 57366U 23099AQ  24173.64658184  .00001771  00000+0  14616-3 0  9995,2 57366  43.0009  37.6618 0001263 248.2588 111.8120 15.02528732 52786,15.02528732,0.0001263,LEO
57367,STARLINK-6215,2023,95.84,-1.0,+,43.0,Active,0,LEO,USA,USA,Unknown,Unknown,Unknown,1 57367U 23099AR  24173.57369607  .00002999  00000+0  23695-3 0  9997,2 57367  43.0038  24.9494 0001472 270.4766  89.5908 15.02540625 52989,15.02540625,0.0001472,LEO
57368,STARLINK-6218,2023,95.84,-1.0,+,43.0,Active,0,LEO,USA,USA,Unknown,Unknown,Unknown,1 57368U 23099AS  24173.10920927  .00000359  00000+0  41615-4 0  9996,2 57368  43.0049  40.5131 0001417 262.9638  97.1044 15.02537632 52011,15.02537632,0.0001417,LEO
57369,STARLINK-6168,2023,95.84,-1.0,+,43.0,Active,0,LEO,USA,USA,Unknown,Unknown,Unknown,1 57369U 23099AT  24172.98514073  .00000492  00000+0  51513-4 0  9999,2 57369  43.0091  41.3005 0002128 251.5491 108.5120 15.02533751 52682,15.02533751,0.0002128,LEO
